QIANFAN-175             
1 69392U 26124L   26171.26336487  .00000095  00000+0  36716-4 0  9990
2 69392  88.9983   1.6838 0003642 160.6873 199.4456 14.21339818  2255
QIANFAN-176             
1 69393U 26124M   26171.26070179  .00000093  00000+0  35669-4 0  9998
2 69393  88.9983   1.6834 0002585 162.4264 197.7017 14.21841148  2259
QIANFAN-177             
1 69394U 26124N   26171.25699104  .00000065  00000+0  22471-4 0  9999
2 69394  88.9983   1.6828 0003858 138.0309 222.1179 14.22730526  2256
QIANFAN-178             
1 69395U 26124P   26171.25860403  .00000261  00000+0  11087-3 0  9990
2 69395  88.9983   1.6830 0003072 146.7498 213.3887 14.22274516  2253
QIANFAN-179             
1 69396U 26124Q   26171.25480072  .00000065  00000+0  22538-4 0  9997
2 69396  88.9983   1.6824 0003115 142.3016 217.8395 14.23097169  2254
QIANFAN-180             
1 69397U 26124R   26171.25331285  .00000066  00000+0  22476-4 0  9991
2 69397  88.9983   1.6823 0003309 154.8078 205.3276 14.23618695  2258
QIANFAN-181             
1 69398U 26124S   26171.29198972  .00000074  00000+0  29705-4 0  9991
2 69398  88.9983   1.6881 0002648 109.7220 250.4254 14.16649438  2254
QIANFAN-182             
1 69399U 26124T   26171.20780504  .00000083  00000+0  32851-4 0  9997
2 69399  88.9984   1.6941 0002613 133.4042 226.7366 14.18738536  2240
QIANFAN-183             
1 69401U 26125A   26171.23567771 -.02022735  00000+0 -11695+1 0  9995
2 69401  88.9952 280.0998 0013305 162.8418 197.3221 14.13053743  2133
QIANFAN-184             
1 69402U 26125B   26171.15893426 -.01948538  00000+0 -11515+1 0  9994
2 69402  88.9945 280.1128 0020816 159.8124 200.3890 14.11639509  2121
QIANFAN-185             
1 69403U 26125C   26170.80593634 -.01850064  00000+0 -10873+1 0  9996
2 69403  88.9950 280.1526 0020620 152.1571 208.0723 14.11744531  2071
QIANFAN-186             
1 69404U 26125D   26170.73084055 -.02150127  00000+0 -12051+1 0  9995
2 69404  88.9911 280.1598 0016523 183.2578 176.8505 14.14978163  2069
QIANFAN-187             
1 69405U 26125E   26170.72764104 -.02149587  00000+0 -11814+1 0  9999
2 69405  88.9950 280.1573 0017684 186.7116 173.3838 14.16025362  2068
QIANFAN-188             
1 69406U 26125F   26170.79316292 -.02077050  00000+0 -11264+1 0  9992
2 69406  88.9989 280.1491 0017376 182.4114 177.6993 14.16598732  2075
QIANFAN-189             
1 69407U 26125G   26170.72193317 -.01853945  00000+0 -10384+1 0  9993
2 69407  88.9947 280.1586 0014980 167.6028 192.5531 14.14417547  2067
QIANFAN-190             
1 69408U 26125H   26170.93298204 -.02091624  00000+0 -11418+1 0  9996
2 69408  88.9967 280.1343 0017438 185.5805 174.5192 14.16273042  2092
QIANFAN-191             
1 69409U 26125J   26170.71553640 -.01819046  00000+0 -99942+0 0  9993
2 69409  88.9947 280.1576 0012443 170.0084 190.1353 14.15407399  2061
QIANFAN-192             
1 69410U 26125K   26171.20592247 -.01722977  00000+0 -94715+0 0  9995
2 69410  88.9949 280.1013 0012662 156.7497 203.4267 14.15802162  2130
QIANFAN-193             
1 69411U 26125L   26171.20259476 -.01725353  00000+0 -94876+0 0  9999
2 69411  88.9948 280.1006 0016730 173.7424 186.3976 14.15759213  2135
QIANFAN-194             
1 69412U 26125M   26170.77817540 -.01787424  00000+0 -96675+0 0  9999
2 69412  88.9947 280.1486 0012364 186.3713 173.7320 14.16835506  2063
QIANFAN-195             
1 69413U 26125N   26170.77760962 -.02060440  00000+0 -10715+1 0  9990
2 69413  88.9935 280.1519 0014843 185.9073 174.1944 14.18838348  2073
QIANFAN-196             
1 69414U 26125P   26171.26688366 -.01812881  00000+0 -94922+0 0  9997
2 69414  88.9948 280.0915 0017734 183.8257 176.2800 14.17941681  2146
QIANFAN-197             
1 69415U 26125Q   26170.77375360 -.01921916  00000+0 -10034+1 0  9993
2 69415  88.9949 280.1479 0009001 172.9343 187.1975 14.18379903  2065
QIANFAN-198             
1 69416U 26125R   26170.77438195 -.01897356  00000+0 -99690+0 0  9994
2 69416  88.9948 280.1483 0009053 170.9232 189.2123 14.17990071  2075
QIANFAN-199             
1 69417U 26125S   26170.77152315 -.01926055  00000+0 -97995+0 0  9997
2 69417  88.9945 280.1474 0014695 175.6046 184.5276 14.19732489  2072
QIANFAN-200             
1 69418U 26125T   26170.85805584 -.01893052  00000+0 -10402+1 0  9999
2 69418  88.9946 280.1421 0014564 173.5980 186.5397 14.15539357  2087
STARLINK-37537          
1 69420U 26126A   26170.84177401  .00186036  00000+0  12197-2 0  9991
2 69420  97.2831  30.9483 0001114  91.7906 268.3487 15.75218056  3167
STARLINK-37585          
1 69421U 26126B   26171.21235415  .00131689  00000+0  86919-3 0  9992
2 69421  97.2845  31.3646 0001290 115.0014 245.1385 15.75217586  3228
